IRIDIUM 106             
1 41917U 17003A   25249.13762064  .00000265  00000+0  87677-4 0  9995
2 41917  86.4001 207.1771 0002663  87.8295 272.3206 14.34216483452496
IRIDIUM 103             
1 41918U 17003B   25249.26446542  .00000495  00000+0  16964-3 0  9995
2 41918  86.4001 207.0247 0002131  98.7907 261.3531 14.34217033452531
IRIDIUM 109             
1 41919U 17003C   25249.27081311  .00000531  00000+0  18245-3 0  9991
2 41919  86.4003 207.0767 0002115  87.4826 272.6612 14.34216539452500
IRIDIUM 102             
1 41920U 17003D   25249.16933146 -.00000005  00000+0 -87414-5 0  9997
2 41920  86.4004 207.0491 0002023  82.5421 277.6005 14.34217270452573
IRIDIUM 105             
1 41921U 17003E   25249.27960347  .00000296  00000+0  98735-4 0  9990
2 41921  86.4045 175.5109 0002199  87.7859 272.3589 14.34215880454442
IRIDIUM 104             
1 41922U 17003F   25249.25178286  .00000409  00000+0  13893-3 0  9999
2 41922  86.4002 207.0526 0001874  90.2696 269.8715 14.34215323452573
IRIDIUM 114             
1 41923U 17003G   25249.25812828 -.00000875  00000+0 -31952-3 0  9992
2 41923  86.4003 207.0342 0002116  92.4811 267.6627 14.34215078452557
IRIDIUM 108             
1 41924U 17003H   25249.28641671  .00000458  00000+0  15648-3 0  9991
2 41924  86.4041 175.4040 0002368  78.5130 281.6332 14.34216036454412
